RISAT-2BR2              
1 46905U 20081A   26068.52426450  .00004901  00000+0  37609-3 0  9996
2 46905  36.8980  95.9121 0010905  52.9142 307.2595 15.01602463292489
STARLINK-34748          
1 64848U 25152G   26068.57907688 -.00000072  00000+0 -76120-6 0  9999
2 64848  97.5998 285.4411 0003972 100.2475 259.9200 15.05633159 35401
